{"type": "FeatureCollection", "features": [ {"type": "Feature", "properties": {"norad_id": 33905, "name": "COSMOS 2251 DEB", "group": "cosmos-2251-debris", "lat": -70.99306890931575, "lon": -112.8324464212453, "alt_km": 778.8660085048896, "timestamp": "2025-12-19T10:50:01.594553+00:00", "meta": {"OBJECT_NAME": "COSMOS 2251 DEB", "OBJECT_ID": "1993-036DJ", "EPOCH": "2025-12-18T22:05:22.216992", "MEAN_MOTION": 14.35407236, "ECCENTRICITY": 0.00584467, "INCLINATION": 73.8871, "RA_OF_ASC_NODE": 305.2034, "ARG_OF_PERICENTER": 193.4102, "MEAN_ANOMALY": 223.2519, "EPHEMERIS_TYPE": 0, "CLASSIFICATION_TYPE": "U", "NORAD_CAT_ID": 33905, "ELEMENT_SET_NO": 999, "REV_AT_EPOCH": 87776, "BSTAR": 0.00045726097, "MEAN_MOTION_DOT": 1.312e-05, "MEAN_MOTION_DDOT": 0}, "tle": {"line1": "1 33905U 93036DJ  25352.92039603  .00001312  00000+0  45726-3 0  9993", "line2": "2 33905  73.8871 305.2034 0058446 193.4102 223.2519 14.35407236877764"}}, "geometry": {"type": "Point", "coordinates": [-112.8324464212453, -70.99306890931575]}}, {"type": "Feature", "properties": {"norad_id": 33906, "name": "COSMOS 2251 DEB", "group": "cosmos-2251-debris", "lat": -29.53689303483933, "lon": -60.61911058249563, "alt_km": 681.9567998595785, "timestamp": "2025-12-19T10:50:01.594564+00:00", "meta": {"OBJECT_NAME": "COSMOS 2251 DEB", "OBJECT_ID": "1993-036DK", "EPOCH": "2025-12-18T22:04:04.008576", "MEAN_MOTION": 14.57191399, "ECCENTRICITY": 0.00368442, "INCLINATION": 74.0302, "RA_OF_ASC_NODE": 309.7294, "ARG_OF_PERICENTER": 338.2353, "MEAN_ANOMALY": 81.8391, "EPHEMERIS_TYPE": 0, "CLASSIFICATION_TYPE": "U", "NORAD_CAT_ID": 33906, "ELEMENT_SET_NO": 999, "REV_AT_EPOCH": 88098, "BSTAR": 0.0014422865, "MEAN_MOTION_DOT": 6.548e-05, "MEAN_MOTION_DDOT": 0}, "tle": {"line1": "1 33906U 93036DK  25352.91949084  .00006548  00000+0  14423-2 0  9991", "line2": "2 33906  74.0302 309.7294 0036844 338.2353  81.8391 14.57191399880987"}}, "geometry": {"type": "Point", "coordinates": [-60.61911058249563, -29.53689303483933]}}, {"type": "Feature", "properties": {"norad_id": 33907, "name": "COSMOS 2251 DEB", "group": "cosmos-2251-debris", "lat": 17.55704671347926, "lon": 26.6467077865651, "alt_km": 745.1240069539244, "timestamp": "2025-12-19T10:50:01.594576+00:00", "meta": {"OBJECT_NAME": "COSMOS 2251 DEB", "OBJECT_ID": "1993-036DL", "EPOCH": "2025-12-18T13:38:38.524416", "MEAN_MOTION": 14.30556579, "ECCENTRICITY": 0.01119294, "INCLINATION": 74.0696, "RA_OF_ASC_NODE": 23.065, "ARG_OF_PERICENTER": 76.8102, "MEAN_ANOMALY": 77.4902, "EPHEMERIS_TYPE": 0, "CLASSIFICATION_TYPE": "U", "NORAD_CAT_ID": 33907, "ELEMENT_SET_NO": 999, "REV_AT_EPOCH": 86663, "BSTAR": 0.00134518, "MEAN_MOTION_DOT": 3.733e-05, "MEAN_MOTION_DDOT": 0}, "tle": {"line1": "1 33907U 93036DL  25352.56850144  .00003733  00000+0  13452-2 0  9995", "line2": "2 33907  74.0696  23.0650 0111929  76.8102  77.4902 14.30556579866632"}}, "geometry": {"type": "Point", "coordinates": [26.6467077865651, 17.55704671347926]}}, {"type": "Feature", "properties": {"norad_id": 33908, "name": "COSMOS 2251 DEB", "group": "cosmos-2251-debris", "lat": -28.703145802955834, "lon": 22.993480543442562, "alt_km": 713.3478084310082, "timestamp": "2025-12-19T10:50:01.594586+00:00", "meta": {"OBJECT_NAME": "COSMOS 2251 DEB", "OBJECT_ID": "1993-036DM", "EPOCH": "2025-12-18T13:21:34.172064", "MEAN_MOTION": 14.07383699, "ECCENTRICITY": 0.02226289, "INCLINATION": 73.837, "RA_OF_ASC_NODE": 195.4437, "ARG_OF_PERICENTER": 217.8806, "MEAN_ANOMALY": 140.6491, "EPHEMERIS_TYPE": 0, "CLASSIFICATION_TYPE": "U", "NORAD_CAT_ID": 33908, "ELEMENT_SET_NO": 999, "REV_AT_EPOCH": 85555, "BSTAR": 0.0015133609, "MEAN_MOTION_DOT": 3.164e-05, "MEAN_MOTION_DDOT": 0}, "tle": {"line1": "1 33908U 93036DM  25352.55664551  .00003164  00000+0  15134-2 0  9997", "line2": "2 33908  73.8370 195.4437 0222628 217.8806 140.6491 14.07383699855553"}}, "geometry": {"type": "Point", "coordinates": [22.993480543442562, -28.703145802955834]}}, {"type": "Feature", "properties": {"norad_id": 33911, "name": "COSMOS 2251 DEB", "group": "cosmos-2251-debris", "lat": 9.290650679581654, "lon": -33.89169577893261, "alt_km": 645.6798075082152, "timestamp": "2025-12-19T10:50:01.594596+00:00", "meta": {"OBJECT_NAME": "COSMOS 2251 DEB", "OBJECT_ID": "1993-036DQ", "EPOCH": "2025-12-18T21:44:01.032864", "MEAN_MOTION": 14.75001431, "ECCENTRICITY": 0.00140943, "INCLINATION": 74.0896, "RA_OF_ASC_NODE": 149.8456, "ARG_OF_PERICENTER": 86.0047, "MEAN_ANOMALY": 66.8451, "EPHEMERIS_TYPE": 0, "CLASSIFICATION_TYPE": "U", "NORAD_CAT_ID": 33911, "ELEMENT_SET_NO": 999, "REV_AT_EPOCH": 88735, "BSTAR": 0.0015567305, "MEAN_MOTION_DOT": 0.00010474, "MEAN_MOTION_DDOT": 0}, "tle": {"line1": "1 33911U 93036DQ  25352.90556751  .00010474  00000+0  15567-2 0  9994", "line2": "2 33911  74.0896 149.8456 0014094  86.0047  66.8451 14.75001431887350"}}, "geometry": {"type": "Point", "coordinates": [-33.89169577893261, 9.290650679581654]}}, {"type": "Feature", "properties": {"norad_id": 33912, "name": "COSMOS 2251 DEB", "group": "cosmos-2251-debris", "lat": -39.23215449101192, "lon": 10.601691650410231, "alt_km": 718.8587514555838, "timestamp": "2025-12-19T10:50:01.594606+00:00", "meta": {"OBJECT_NAME": "COSMOS 2251 DEB", "OBJECT_ID": "1993-036DR", "EPOCH": "2025-12-18T22:56:29.258016", "MEAN_MOTION": 14.51927967, "ECCENTRICITY": 0.00113593, "INCLINATION": 74.0326, "RA_OF_ASC_NODE": 178.015, "ARG_OF_PERICENTER": 256.9966, "MEAN_ANOMALY": 255.1596, "EPHEMERIS_TYPE": 0, "CLASSIFICATION_TYPE": "U", "NORAD_CAT_ID": 33912, "ELEMENT_SET_NO": 999, "REV_AT_EPOCH": 88523, "BSTAR": 0.00056863507, "MEAN_MOTION_DOT": 2.268e-05, "MEAN_MOTION_DDOT": 0}, "tle": {"line1": "1 33912U 93036DR  25352.95589419  .00002268  00000+0  56864-3 0  9995", "line2": "2 33912  74.0326 178.0150 0011359 256.9966 255.1596 14.51927967885236"}}, "geometry": {"type": "Point", "coordinates": [10.601691650410231, -39.23215449101192]}}, {"type": "Feature", "properties": {"norad_id": 33913, "name": "COSMOS 2251 DEB", "group": "cosmos-2251-debris", "lat": -41.96627002745389, "lon": 5.992133931526257, "alt_km": 713.9490039441334, "timestamp": "2025-12-19T10:50:01.594616+00:00", "meta": {"OBJECT_NAME": "COSMOS 2251 DEB", "OBJECT_ID": "1993-036DS", "EPOCH": "2025-12-18T22:45:02.855808", "MEAN_MOTION": 14.48510127, "ECCENTRICITY": 0.00481485, "INCLINATION": 74.0324, "RA_OF_ASC_NODE": 172.0134, "ARG_OF_PERICENTER": 273.4672, "MEAN_ANOMALY": 206.6452, "EPHEMERIS_TYPE": 0, "CLASSIFICATION_TYPE": "U", "NORAD_CAT_ID": 33913, "ELEMENT_SET_NO": 999, "REV_AT_EPOCH": 88547, "BSTAR": 0.00042635706, "MEAN_MOTION_DOT": 1.595e-05, "MEAN_MOTION_DDOT": 0}, "tle": {"line1": "1 33913U 93036DS  25352.94794972  .00001595  00000+0  42636-3 0  9991", "line2": "2 33913  74.0324 172.0134 0048148 273.4672 206.6452 14.48510127885475"}}, "geometry": {"type": "Point", "coordinates": [5.992133931526257, -41.96627002745389]}}, {"type": "Feature", "properties": {"norad_id": 33914, "name": "COSMOS 2251 DEB", "group": "cosmos-2251-debris", "lat": 32.57511947194438, "lon": 173.5354817169613, "alt_km": 818.446839420476, "timestamp": "2025-12-19T10:50:01.594627+00:00", "meta": {"OBJECT_NAME": "COSMOS 2251 DEB", "OBJECT_ID": "1993-036DT", "EPOCH": "2025-12-18T11:58:08.840352", "MEAN_MOTION": 13.71988289, "ECCENTRICITY": 0.0300893, "INCLINATION": 74.0911, "RA_OF_ASC_NODE": 5.6039, "ARG_OF_PERICENTER": 107.2446, "MEAN_ANOMALY": 12.707, "EPHEMERIS_TYPE": 0, "CLASSIFICATION_TYPE": "U", "NORAD_CAT_ID": 33914, "ELEMENT_SET_NO": 999, "REV_AT_EPOCH": 84160, "BSTAR": 0.00021861866, "MEAN_MOTION_DOT": 2.55e-06, "MEAN_MOTION_DDOT": 0}, "tle": {"line1": "1 33914U 93036DT  25352.49871343  .00000255  00000+0  21862-3 0  9990", "line2": "2 33914  74.0911   5.6039 0300893 107.2446  12.7070 13.71988289841606"}}, "geometry": {"type": "Point", "coordinates": [173.5354817169613, 32.57511947194438]}}, {"type": "Feature", "properties": {"norad_id": 33915, "name": "COSMOS 2251 DEB", "group": "cosmos-2251-debris", "lat": -12.044446911334028, "lon": 18.307554856362398, "alt_km": 820.9921435281594, "timestamp": "2025-12-19T10:50:01.594637+00:00", "meta": {"OBJECT_NAME": "COSMOS 2251 DEB", "OBJECT_ID": "1993-036DU", "EPOCH": "2025-12-18T12:02:34.834848", "MEAN_MOTION": 14.35095885, "ECCENTRICITY": 0.01041491, "INCLINATION": 74.0433, "RA_OF_ASC_NODE": 23.5471, "ARG_OF_PERICENTER": 114.5498, "MEAN_ANOMALY": 9.9412, "EPHEMERIS_TYPE": 0, "CLASSIFICATION_TYPE": "U", "NORAD_CAT_ID": 33915, "ELEMENT_SET_NO": 999, "REV_AT_EPOCH": 87840, "BSTAR": 0.00027838497, "MEAN_MOTION_DOT": 8.19e-06, "MEAN_MOTION_DDOT": 0}, "tle": {"line1": "1 33915U 93036DU  25352.50179207  .00000819  00000+0  27838-3 0  9998", "line2": "2 33915  74.0433  23.5471 0104149 114.5498   9.9412 14.35095885878407"}}, "geometry": {"type": "Point", "coordinates": [18.307554856362398, -12.044446911334028]}}, {"type": "Feature", "properties": {"norad_id": 33916, "name": "COSMOS 2251 DEB", "group": "cosmos-2251-debris", "lat": -27.80174386949054, "lon": 20.889975199957565, "alt_km": 1162.2120752754108, "timestamp": "2025-12-19T10:50:01.594647+00:00", "meta": {"OBJECT_NAME": "COSMOS 2251 DEB", "OBJECT_ID": "1993-036DV", "EPOCH": "2025-12-18T14:33:27.131328", "MEAN_MOTION": 13.68620371, "ECCENTRICITY": 0.03250869, "INCLINATION": 74.0523, "RA_OF_ASC_NODE": 30.9488, "ARG_OF_PERICENTER": 201.8451, "MEAN_ANOMALY": 285.3755, "EPHEMERIS_TYPE": 0, "CLASSIFICATION_TYPE": "U", "NORAD_CAT_ID": 33916, "ELEMENT_SET_NO": 999, "REV_AT_EPOCH": 83971, "BSTAR": 0.000295476, "MEAN_MOTION_DOT": 3.44e-06, "MEAN_MOTION_DDOT": 0}, "tle": {"line1": "1 33916U 93036DV  25352.60656402  .00000344  00000+0  29548-3 0  9990", "line2": "2 33916  74.0523  30.9488 0325086 201.8451 285.3755 13.68620371839712"}}, "geometry": {"type": "Point", "coordinates": [20.889975199957565, -27.80174386949054]}}]}